FENGYUN 1C DEB          
1 32305U 99025CWW 17345.77807027  .00001286  00000-0  78142-3 0  9998
2 32305  97.9970 185.3806 0217595 160.2193 200.7577 13.96553136514592
